#Pass ID: 20250124_074524_METOP-C
#Satellite: METOP-C
#Configuration: METOP-C
#Start time: 2025-01-24 07:45:29.856155

#LorettStation: 1.0.0 05.05.2024
#Station: Regia
#Location: 37.494653 lon 55.929028 lat
#TLE: 1 43689U 18087A   25023.80960871  .00000345  00000+0  17780-3 0  9992
#TLE: 2 43689  98.6952  86.1699 0001813 148.0530 212.0757 14.21487618322467

#Time	Az	El	Level	SNR
#Closed at: 2025-01-24 07:45:24.856567